CCSDS_OMM_VERS = 2.0
CREATION_DATE  = 
ORIGINATOR     = 

OBJECT_NAME    = SL-16 R/B
OBJECT_ID      = 1993-016B
CENTER_NAME    = EARTH
REF_FRAME      = TEME
TIME_SYSTEM    = UTC
MEAN_ELEMENT_THEORY = SGP/SGP4

EPOCH          = 2026-02-02T03:48:20.177568
MEAN_MOTION    = 14.15303151
ECCENTRICITY   = .00098591
INCLINATION    = 71.0083
RA_OF_ASC_NODE = 289.8109
ARG_OF_PERICENTER = 4.3556
MEAN_ANOMALY   = 355.7651

EPHEMERIS_TYPE = 0
CLASSIFICATION_TYPE = U
NORAD_CAT_ID   = 22566
ELEMENT_SET_NO = 999
REV_AT_EPOCH   = 69714
BSTAR          = .95821874E-4
MEAN_MOTION_DOT = .139E-5
MEAN_MOTION_DDOT = 0

CCSDS_OMM_VERS = 2.0
CREATION_DATE  = 
ORIGINATOR     = 

OBJECT_NAME    = COSMOS 2242
OBJECT_ID      = 1993-024A
CENTER_NAME    = EARTH
REF_FRAME      = TEME
TIME_SYSTEM    = UTC
MEAN_ELEMENT_THEORY = SGP/SGP4

EPOCH          = 2026-02-02T11:09:10.048032
MEAN_MOTION    = 14.96392727
ECCENTRICITY   = .0018006
INCLINATION    = 82.5205
RA_OF_ASC_NODE = 300.4048
ARG_OF_PERICENTER = 65.7733
MEAN_ANOMALY   = 294.5368

EPHEMERIS_TYPE = 0
CLASSIFICATION_TYPE = U
NORAD_CAT_ID   = 22626
ELEMENT_SET_NO = 999
REV_AT_EPOCH   = 77512
BSTAR          = .19189E-3
MEAN_MOTION_DOT = .2206E-4
MEAN_MOTION_DDOT = 0

CCSDS_OMM_VERS = 2.0
CREATION_DATE  = 
ORIGINATOR     = 

OBJECT_NAME    = SL-16 R/B
OBJECT_ID      = 1993-059B
CENTER_NAME    = EARTH
REF_FRAME      = TEME
TIME_SYSTEM    = UTC
MEAN_ELEMENT_THEORY = SGP/SGP4

EPOCH          = 2026-02-02T11:14:43.153728
MEAN_MOTION    = 14.17224108
ECCENTRICITY   = .00195
INCLINATION    = 70.9894
RA_OF_ASC_NODE = 85.4047
ARG_OF_PERICENTER = 264.5281
MEAN_ANOMALY   = 95.3618

EPHEMERIS_TYPE = 0
CLASSIFICATION_TYPE = U
NORAD_CAT_ID   = 22803
ELEMENT_SET_NO = 999
REV_AT_EPOCH   = 67454
BSTAR          = .12603E-3
MEAN_MOTION_DOT = .207E-5
MEAN_MOTION_DDOT = 0

CCSDS_OMM_VERS = 2.0
CREATION_DATE  = 
ORIGINATOR     = 

OBJECT_NAME    = ARIANE 40 R/B
OBJECT_ID      = 1993-061H
CENTER_NAME    = EARTH
REF_FRAME      = TEME
TIME_SYSTEM    = UTC
MEAN_ELEMENT_THEORY = SGP/SGP4

EPOCH          = 2026-02-02T10:24:54.086976
MEAN_MOTION    = 14.32841256
ECCENTRICITY   = .0011182
INCLINATION    = 98.4991
RA_OF_ASC_NODE = 103.0042
ARG_OF_PERICENTER = 34.2149
MEAN_ANOMALY   = 325.9754

EPHEMERIS_TYPE = 0
CLASSIFICATION_TYPE = U
NORAD_CAT_ID   = 22830
ELEMENT_SET_NO = 999
REV_AT_EPOCH   = 68905
BSTAR          = .10558E-3
MEAN_MOTION_DOT = .245E-5
MEAN_MOTION_DDOT = 0

CCSDS_OMM_VERS = 2.0
CREATION_DATE  = 
ORIGINATOR     = 

OBJECT_NAME    = COSMOS 2278
OBJECT_ID      = 1994-023A
CENTER_NAME    = EARTH
REF_FRAME      = TEME
TIME_SYSTEM    = UTC
MEAN_ELEMENT_THEORY = SGP/SGP4

EPOCH          = 2026-02-02T10:44:51.881280
MEAN_MOTION    = 14.14365316
ECCENTRICITY   = .0006367
INCLINATION    = 71.0511
RA_OF_ASC_NODE = 248.8305
ARG_OF_PERICENTER = 79.8731
MEAN_ANOMALY   = 280.3109

EPHEMERIS_TYPE = 0
CLASSIFICATION_TYPE = U
NORAD_CAT_ID   = 23087
ELEMENT_SET_NO = 999
REV_AT_EPOCH   = 63982
BSTAR          = -.9606E-4
MEAN_MOTION_DOT = -.231E-5
MEAN_MOTION_DDOT = 0

CCSDS_OMM_VERS = 2.0
CREATION_DATE  = 
ORIGINATOR     = 

OBJECT_NAME    = SL-16 R/B
OBJECT_ID      = 1994-023B
CENTER_NAME    = EARTH
REF_FRAME      = TEME
TIME_SYSTEM    = UTC
MEAN_ELEMENT_THEORY = SGP/SGP4

EPOCH          = 2026-02-02T10:33:00.830880
MEAN_MOTION    = 14.15004175
ECCENTRICITY   = .0004409
INCLINATION    = 71.0000
RA_OF_ASC_NODE = 144.9167
ARG_OF_PERICENTER = 318.1255
MEAN_ANOMALY   = 41.9529

EPHEMERIS_TYPE = 0
CLASSIFICATION_TYPE = U
NORAD_CAT_ID   = 23088
ELEMENT_SET_NO = 999
REV_AT_EPOCH   = 64110
BSTAR          = -.88732E-4
MEAN_MOTION_DOT = -.22E-5
MEAN_MOTION_DDOT = 0

CCSDS_OMM_VERS = 2.0
CREATION_DATE  = 
ORIGINATOR     = 

OBJECT_NAME    = SL-16 R/B
OBJECT_ID      = 1994-074B
CENTER_NAME    = EARTH
REF_FRAME      = TEME
TIME_SYSTEM    = UTC
MEAN_ELEMENT_THEORY = SGP/SGP4

EPOCH          = 2026-02-02T03:28:45.886656
MEAN_MOTION    = 14.79362915
ECCENTRICITY   = .00061722
INCLINATION    = 97.7152
RA_OF_ASC_NODE = 65.3952
ARG_OF_PERICENTER = 350.1584
MEAN_ANOMALY   = 51.0194

EPHEMERIS_TYPE = 0
CLASSIFICATION_TYPE = U
NORAD_CAT_ID   = 23343
ELEMENT_SET_NO = 999
REV_AT_EPOCH   = 68199
BSTAR          = .71478999E-4
MEAN_MOTION_DOT = .483E-5
MEAN_MOTION_DDOT = 0

CCSDS_OMM_VERS = 2.0
CREATION_DATE  = 
ORIGINATOR     = 

OBJECT_NAME    = SL-16 R/B
OBJECT_ID      = 1994-077B
CENTER_NAME    = EARTH
REF_FRAME      = TEME
TIME_SYSTEM    = UTC
MEAN_ELEMENT_THEORY = SGP/SGP4

EPOCH          = 2026-02-02T10:26:21.648192
MEAN_MOTION    = 14.15556818
ECCENTRICITY   = .0004581
INCLINATION    = 70.9815
RA_OF_ASC_NODE = 66.6595
ARG_OF_PERICENTER = 243.4872
MEAN_ANOMALY   = 116.5781

EPHEMERIS_TYPE = 0
CLASSIFICATION_TYPE = U
NORAD_CAT_ID   = 23405
ELEMENT_SET_NO = 999
REV_AT_EPOCH   = 61124
BSTAR          = -.69406E-4
MEAN_MOTION_DOT = -.184E-5
MEAN_MOTION_DDOT = 0

CCSDS_OMM_VERS = 2.0
CREATION_DATE  = 
ORIGINATOR     = 

OBJECT_NAME    = ARIANE 40+ R/B
OBJECT_ID      = 1995-021B
CENTER_NAME    = EARTH
REF_FRAME      = TEME
TIME_SYSTEM    = UTC
MEAN_ELEMENT_THEORY = SGP/SGP4

EPOCH          = 2026-02-02T03:48:59.911200
MEAN_MOTION    = 14.39744665
ECCENTRICITY   = .0005782
INCLINATION    = 98.4569
RA_OF_ASC_NODE = 105.1100
ARG_OF_PERICENTER = 243.4344
MEAN_ANOMALY   = 145.5398

EPHEMERIS_TYPE = 0
CLASSIFICATION_TYPE = U
NORAD_CAT_ID   = 23561
ELEMENT_SET_NO = 999
REV_AT_EPOCH   = 61413
BSTAR          = .11525323E-3
MEAN_MOTION_DOT = .317E-5
MEAN_MOTION_DDOT = 0

CCSDS_OMM_VERS = 2.0
CREATION_DATE  = 
ORIGINATOR     = 

OBJECT_NAME    = SL-16 R/B
OBJECT_ID      = 1995-058B
CENTER_NAME    = EARTH
REF_FRAME      = TEME
TIME_SYSTEM    = UTC
MEAN_ELEMENT_THEORY = SGP/SGP4

EPOCH          = 2026-02-02T02:05:07.532736
MEAN_MOTION    = 14.15488460
ECCENTRICITY   = .00126948
INCLINATION    = 71.0190
RA_OF_ASC_NODE = 255.0030
ARG_OF_PERICENTER = 183.6906
MEAN_ANOMALY   = 176.4126

EPHEMERIS_TYPE = 0
CLASSIFICATION_TYPE = U
NORAD_CAT_ID   = 23705
ELEMENT_SET_NO = 999
REV_AT_EPOCH   = 56281
BSTAR          = .98646875E-4
MEAN_MOTION_DOT = .145E-5
MEAN_MOTION_DDOT = 0

CCSDS_OMM_VERS = 2.0
CREATION_DATE  = 
ORIGINATOR     = 

OBJECT_NAME    = SL-16 R/B
OBJECT_ID      = 1996-051B
CENTER_NAME    = EARTH
REF_FRAME      = TEME
TIME_SYSTEM    = UTC
MEAN_ELEMENT_THEORY = SGP/SGP4

EPOCH          = 2026-02-02T01:07:44.167008
MEAN_MOTION    = 14.12405353
ECCENTRICITY   = .0018016
INCLINATION    = 70.7568
RA_OF_ASC_NODE = 250.6828
ARG_OF_PERICENTER = 197.3304
MEAN_ANOMALY   = 162.7203

EPHEMERIS_TYPE = 0
CLASSIFICATION_TYPE = U
NORAD_CAT_ID   = 24298
ELEMENT_SET_NO = 999
REV_AT_EPOCH   = 51661
BSTAR          = .6342253E-4
MEAN_MOTION_DOT = .68E-6
MEAN_MOTION_DDOT = 0

CCSDS_OMM_VERS = 2.0
CREATION_DATE  = 
ORIGINATOR     = 

OBJECT_NAME    = ORBVIEW 2 (SEASTAR)
OBJECT_ID      = 1997-037A
CENTER_NAME    = EARTH
REF_FRAME      = TEME
TIME_SYSTEM    = UTC
MEAN_ELEMENT_THEORY = SGP/SGP4

EPOCH          = 2026-02-02T10:15:01.655136
MEAN_MOTION    = 14.35465940
ECCENTRICITY   = .000271
INCLINATION    = 98.8506
RA_OF_ASC_NODE = 196.8169
ARG_OF_PERICENTER = 144.7859
MEAN_ANOMALY   = 215.3505

EPHEMERIS_TYPE = 0
CLASSIFICATION_TYPE = U
NORAD_CAT_ID   = 24883
ELEMENT_SET_NO = 999
REV_AT_EPOCH   = 50341
BSTAR          = .12409E-3
MEAN_MOTION_DOT = .31E-5
MEAN_MOTION_DDOT = 0

