SL-16 R/B               
1 22566U 93016B   26033.15856687  .00000139  00000+0  95822-4 0  9992
2 22566  71.0083 289.8109 0009859   4.3556 355.7651 14.15303151697146
COSMOS 2242             
1 22626U 93024A   26033.46469963  .00002206  00000+0  19189-3 0  9997
2 22626  82.5205 300.4048 0018006  65.7733 294.5368 14.96392727775126
SL-16 R/B               
1 22803U 93059B   26033.46855502  .00000207  00000+0  12603-3 0  9993
2 22803  70.9894  85.4047 0019500 264.5281  95.3618 14.17224108674543
ARIANE 40 R/B           
1 22830U 93061H   26033.43395934  .00000245  00000+0  10558-3 0  9990
2 22830  98.4991 103.0042 0011182  34.2149 325.9754 14.32841256689052
COSMOS 2278             
1 23087U 94023A   26033.44782270 -.00000231  00000+0 -96060-4 0  9998
2 23087  71.0511 248.8305 0006367  79.8731 280.3109 14.14365316639829
SL-16 R/B               
1 23088U 94023B   26033.43959295 -.00000220  00000+0 -88732-4 0  9996
2 23088  71.0000 144.9167 0004409 318.1255  41.9529 14.15004175641105
SL-16 R/B               
1 23343U 94074B   26033.14497554  .00000483  00000+0  71479-4 0  9998
2 23343  97.7152  65.3952 0006172 350.1584  51.0194 14.79362915681990
SL-16 R/B               
1 23405U 94077B   26033.43497278 -.00000184  00000+0 -69406-4 0  9992
2 23405  70.9815  66.6595 0004581 243.4872 116.5781 14.15556818611248
ARIANE 40+ R/B          
1 23561U 95021B   26033.15902675  .00000317  00000+0  11525-3 0  9990
2 23561  98.4569 105.1100 0005782 243.4344 145.5398 14.39744665614133
SL-16 R/B               
1 23705U 95058B   26033.08689274  .00000145  00000+0  98647-4 0  9999
2 23705  71.0190 255.0030 0012694 183.6906 176.4126 14.15488460562817
SL-16 R/B               
1 24298U 96051B   26033.04703897  .00000068  00000+0  63423-4 0  9993
2 24298  70.7568 250.6828 0018016 197.3304 162.7203 14.12405353516612
ORBVIEW 2 (SEASTAR)     
1 24883U 97037A   26033.42710249  .00000310  00000+0  12409-3 0  9996
2 24883  98.8506 196.8169 0002710 144.7859 215.3505 14.35465940503416
